COSMOS 2433 (720)       
1 32275U 07052A   26053.88600561 -.00000046  00000+0  00000+0 0  9992
2 32275  65.6407 319.7829 0002551 272.0140  88.0076  2.13104062142620
COSMOS 2432 (719)       
1 32276U 07052B   26054.12510391 -.00000048  00000+0  00000+0 0  9994
2 32276  65.6566 319.9003 0010834 328.5717 159.1343  2.13103248142658
COSMOS 2434 (721)       
1 32393U 07065A   26055.43328079  .00000056  00000+0  00000+0 0  9991
2 32393  64.3189 195.7156 0004105  71.0412 286.3387  2.13101226141362
COSMOS 2436 (723)       
1 32395U 07065C   26054.39746641  .00000067  00000+0  00000+0 0  9998
2 32395  64.3275 195.8217 0017602   8.2302  47.2877  2.13100181141306
COSMOS 2456 (730)       
1 36111U 09070A   26054.99816745  .00000023  00000+0  00000+0 0  9997
2 36111  64.9429  74.8330 0006117 302.7819 238.2998  2.13103662126013
COSMOS 2457 (733)       
1 36112U 09070B   26054.18302581  .00000022  00000+0  00000+0 0  9996
2 36112  64.9278  74.7069 0002595 191.9042 212.2889  2.13101064126000
COSMOS 2460 (732)       
1 36402U 10007C   26055.29836382 -.00000049  00000+0  00000+0 0  9994
2 36402  65.4850 318.2892 0001800 359.7851 180.6845  2.13106120124325
COSMOS 2476 (744)       
1 37867U 11064A   26055.35173462  .00000025  00000+0  00000+0 0  9997
2 37867  65.2036  76.6806 0025297 240.7176 119.9547  2.13103736111364
COSMOS 2477 (745)       
1 37868U 11064B   26054.23105292  .00000023  00000+0  00000+0 0  9998
2 37868  65.2093  76.7967 0022381 241.8705 159.7399  2.13102952111331
COSMOS 2475 (743)       
1 37869U 11064C   26054.40569505  .00000023  00000+0  00000+0 0  9999
2 37869  65.2164  76.8115 0028194 253.5225 237.6760  2.13101744111349
COSMOS 2485 (747)       
1 39155U 13019A   26054.34938027  .00000023  00000+0  00000+0 0  9993
2 39155  65.3537  77.4248 0025611 236.2418 123.5673  2.13103092 99856
COSMOS 2492 (754)       
1 39620U 14012A   26052.90041422 -.00000039  00000+0  00000+0 0  9996
2 39620  65.3641 317.8571 0013561 324.6942  35.2714  2.13103352 92783
COSMOS 2500 (755)       
1 40001U 14032A   26054.01016572 -.00000044  00000+0  00000+0 0  9991
2 40001  65.2989 317.5757 0005332 207.2117 152.8129  2.13106041 91022
COSMOS 2501 (702K)      
1 40315U 14075A   26054.27062175  .00000065  00000+0  00000+0 0  9996
2 40315  63.6175 194.3123 0020583 205.2280 154.6502  2.13101350 87423
COSMOS 2514 (751)       
1 41330U 16008A   26055.19352846 -.00000047  00000+0  00000+0 0  9992
2 41330  65.0877 316.8871 0009287 211.2815 148.7135  2.13102523 78212
COSMOS 2522 (752)       
1 42939U 17055A   26055.03146178  .00000060  00000+0  00000+0 0  9997
2 42939  64.0797 195.7324 0006954 225.9450 133.9762  2.13101722 65566
COSMOS 2527 (756)       
1 43508U 18053A   26054.05417329  .00000024  00000+0  00000+0 0  9999
2 43508  65.5120  77.7143 0009711 242.9940 116.9612  2.13102273 59841
COSMOS 2529 (757)       
1 43687U 18086A   26052.74338542  .00000072  00000+0  00000+0 0  9999
2 43687  64.2959 196.4891 0007743 252.8532 107.0365  2.13101876 56823
COSMOS 2534 (758)       
1 44299U 19030A   26054.41902512  .00000067  00000+0  00000+0 0  9993
2 44299  64.3695 196.4439 0009271 281.1294  58.7225  2.13102150 52499
COSMOS 2544 (759)       
1 44850U 19088A   26053.99880218  .00000024  00000+0  00000+0 0  9992
2 44850  65.4995  77.5416 0015807 258.0652 101.8116  2.13102093 48281
COSMOS 2545 (760)       
1 45358U 20018A   26054.19438990 -.00000044  00000+0  00000+0 0  9993
2 45358  64.4235 316.4282 0008654 251.8856 108.0730  2.13102519 46233
COSMOS 2547 (705K)      
1 46805U 20075A   26054.38286331  .00000068  00000+0  00000+0 0  9990
2 46805  64.6000 196.2700 0006493 228.7507 131.1718  2.13100264 41487
COSMOS 2557 (706K)      
1 52984U 22075A   26053.14018637 -.00000043  00000+0  00000+0 0  9996
2 52984  64.3658 318.5411 0012034 283.3616  76.5579  2.13101880 28265
COSMOS 2559 (707K)      
1 54031U 22130A   26053.89806918 -.00000046  00000+0  00000+0 0  9995
2 54031  64.3375 318.6009 0010604 183.2306 176.8140  2.13101105 26250
COSMOS 2564 (761)       
1 54377U 22161A   26054.68018010  .00000066  00000+0  00000+0 0  9999
2 54377  64.7419 196.4761 0009206 208.0806 151.8484  2.13101844 25219
COSMOS 2569 (703K)      
1 57517U 23114A   26054.22394554  .00000023  00000+0  00000+0 0  9990
2 57517  65.2358  76.4630 0012788 290.9452  68.9705  2.13103857 19835
COSMOS 2584 (704K)      
1 63130U 25042A   26052.23376002  .00000028  00000+0  00000+0 0  9992
2 63130  65.0163  76.7434 0007887 235.0543 124.9308  2.13103205  7572
COSMOS 2596 (708K)      
1 65590U 25206B   26054.06828242 -.00000047  00000+0  00000+0 0  9999
2 65590  64.6999 318.9609 0013150 314.4113 130.6271  2.13099976  3484
